{
  "type": "FeatureCollection",
  "features": [
    {
      "type": "Feature",
      "properties": {
        "norad_id": 39617,
        "name": "ASTRA 5B (EGNOS/PRN 123)",
        "group": "gnss",
        "lat": 0.06036149052322379,
        "lon": 168.8748029003501,
        "alt_km": 35787.63202371873,
        "timestamp": "2025-12-03T04:52:29.879978+00:00",
        "meta_object_name": "ASTRA 5B (EGNOS/PRN 123)",
        "meta_object_id": "2014-011B",
        "meta_epoch": "2025-12-02T17:19:16.087008",
        "meta_mean_motion": 1.00273545,
        "meta_eccentricity": 0.0004808,
        "meta_inclination": 0.0845,
        "meta_ra_of_asc_node": 55.373,
        "meta_arg_of_pericenter": 209.6322,
        "meta_mean_anomaly": 90.1655,
        "meta_ephemeris_type": 0,
        "meta_classification_type": "U",
        "meta_norad_cat_id": 39617,
        "meta_element_set_no": 999,
        "meta_rev_at_epoch": 4269,
        "meta_bstar": 0,
        "meta_mean_motion_dot": 1.57e-06,
        "meta_mean_motion_ddot": 0,
        "tle_line1": "1 39617U 14011B   25336.72171397  .00000157  00000+0  00000+0 0  9990",
        "tle_line2": "2 39617   0.0845  55.3730 0004808 209.6322  90.1655  1.00273545 42696"
      },
      "geometry": {
        "type": "Point",
        "coordinates": [
          168.8748029003501,
          0.06036149052322379
        ]
      }
    },
    {
      "type": "Feature",
      "properties": {
        "norad_id": 39620,
        "name": "COSMOS 2492 (754)",
        "group": "gnss",
        "lat": 10.7875200297065,
        "lon": -34.407818098940254,
        "alt_km": 19111.377768255126,
        "timestamp": "2025-12-03T04:52:29.879989+00:00",
        "meta_object_name": "COSMOS 2492 (754)",
        "meta_object_id": "2014-012A",
        "meta_epoch": "2025-12-02T05:58:46.587648",
        "meta_mean_motion": 2.13103074,
        "meta_eccentricity": 0.0014167,
        "meta_inclination": 65.4137,
        "meta_ra_of_asc_node": 320.6266,
        "meta_arg_of_pericenter": 311.0108,
        "meta_mean_anomaly": 48.8746,
        "meta_ephemeris_type": 0,
        "meta_classification_type": "U",
        "meta_norad_cat_id": 39620,
        "meta_element_set_no": 999,
        "meta_rev_at_epoch": 9104,
        "meta_bstar": 0,
        "meta_mean_motion_dot": -3.3e-07,
        "meta_mean_motion_ddot": 0,
        "tle_line1": "1 39620U 14012A   25336.24915032 -.00000033  00000+0  00000+0 0  9998",
        "tle_line2": "2 39620  65.4137 320.6266 0014167 311.0108  48.8746  2.13103074 91048"
      },
      "geometry": {
        "type": "Point",
        "coordinates": [
          -34.407818098940254,
          10.7875200297065
        ]
      }
    },
    {
      "type": "Feature",
      "properties": {
        "norad_id": 39635,
        "name": "IRNSS-1B",
        "group": "gnss",
        "lat": -19.32306152383578,
        "lon": -155.70380474744698,
        "alt_km": 35839.210165749646,
        "timestamp": "2025-12-03T04:52:29.880001+00:00",
        "meta_object_name": "IRNSS-1B",
        "meta_object_id": "2014-017A",
        "meta_epoch": "2025-12-02T19:49:18.476256",
        "meta_mean_motion": 1.00275376,
        "meta_eccentricity": 0.0017619,
        "meta_inclination": 28.8417,
        "meta_ra_of_asc_node": 243.7617,
        "meta_arg_of_pericenter": 183.0296,
        "meta_mean_anomaly": 357.4832,
        "meta_ephemeris_type": 0,
        "meta_classification_type": "U",
        "meta_norad_cat_id": 39635,
        "meta_element_set_no": 999,
        "meta_rev_at_epoch": 4282,
        "meta_bstar": 0,
        "meta_mean_motion_dot": 1.22e-06,
        "meta_mean_motion_ddot": 0,
        "tle_line1": "1 39635U 14017A   25336.82590829  .00000122  00000+0  00000+0 0  9994",
        "tle_line2": "2 39635  28.8417 243.7617 0017619 183.0296 357.4832  1.00275376 42820"
      },
      "geometry": {
        "type": "Point",
        "coordinates": [
          -155.70380474744698,
          -19.32306152383578
        ]
      }
    },
    {
      "type": "Feature",
      "properties": {
        "norad_id": 39727,
        "name": "LUCH 5V (SDCM/PRN 141)",
        "group": "gnss",
        "lat": 0.8966783832372394,
        "lon": -119.81052344329335,
        "alt_km": 35769.46145062536,
        "timestamp": "2025-12-03T04:52:29.880012+00:00",
        "meta_object_name": "LUCH 5V (SDCM/PRN 141)",
        "meta_object_id": "2014-023A",
        "meta_epoch": "2025-12-02T20:08:22.731072",
        "meta_mean_motion": 1.0027208,
        "meta_eccentricity": 0.0004471,
        "meta_inclination": 4.6426,
        "meta_ra_of_asc_node": 71.6224,
        "meta_arg_of_pericenter": 198.2479,
        "meta_mean_anomaly": 198.9375,
        "meta_ephemeris_type": 0,
        "meta_classification_type": "U",
        "meta_norad_cat_id": 39727,
        "meta_element_set_no": 999,
        "meta_rev_at_epoch": 4239,
        "meta_bstar": 0,
        "meta_mean_motion_dot": -2.51e-06,
        "meta_mean_motion_ddot": 0,
        "tle_line1": "1 39727U 14023A   25336.83915198 -.00000251  00000+0  00000+0 0  9998",
        "tle_line2": "2 39727   4.6426  71.6224 0004471 198.2479 198.9375  1.00272080 42390"
      },
      "geometry": {
        "type": "Point",
        "coordinates": [
          -119.81052344329335,
          0.8966783832372394
        ]
      }
    },
    {
      "type": "Feature",
      "properties": {
        "norad_id": 39741,
        "name": "GPS BIIF-6  (PRN 06)",
        "group": "gnss",
        "lat": 38.67108076088051,
        "lon": 127.25310687335929,
        "alt_km": 20280.225484607454,
        "timestamp": "2025-12-03T04:52:29.880024+00:00",
        "meta_object_name": "GPS BIIF-6  (PRN 06)",
        "meta_object_id": "2014-026A",
        "meta_epoch": "2025-12-02T00:33:52.454592",
        "meta_mean_motion": 2.0056192,
        "meta_eccentricity": 0.00388896,
        "meta_inclination": 56.5877,
        "meta_ra_of_asc_node": 339.1935,
        "meta_arg_of_pericenter": 318.1232,
        "meta_mean_anomaly": 41.6099,
        "meta_ephemeris_type": 0,
        "meta_classification_type": "U",
        "meta_norad_cat_id": 39741,
        "meta_element_set_no": 999,
        "meta_rev_at_epoch": 8458,
        "meta_bstar": 0,
        "meta_mean_motion_dot": -5.7e-07,
        "meta_mean_motion_ddot": 0,
        "tle_line1": "1 39741U 14026A   25336.02352378 -.00000057  00000+0  00000+0 0  9997",
        "tle_line2": "2 39741  56.5877 339.1935 0038889 318.1232  41.6099  2.00561920 84582"
      },
      "geometry": {
        "type": "Point",
        "coordinates": [
          127.25310687335929,
          38.67108076088051
        ]
      }
    },
    {
      "type": "Feature",
      "properties": {
        "norad_id": 40001,
        "name": "COSMOS 2500 (755)",
        "group": "gnss",
        "lat": -51.66242688848938,
        "lon": 175.85542415093133,
        "alt_km": 19115.674399687803,
        "timestamp": "2025-12-03T04:52:29.880037+00:00",
        "meta_object_name": "COSMOS 2500 (755)",
        "meta_object_id": "2014-032A",
        "meta_epoch": "2025-12-01T22:51:13.641408",
        "meta_mean_motion": 2.13105853,
        "meta_eccentricity": 0.00082978,
        "meta_inclination": 65.3495,
        "meta_ra_of_asc_node": 320.3998,
        "meta_arg_of_pericenter": 219.081,
        "meta_mean_anomaly": 140.8682,
        "meta_ephemeris_type": 0,
        "meta_classification_type": "U",
        "meta_norad_cat_id": 40001,
        "meta_element_set_no": 999,
        "meta_rev_at_epoch": 8925,
        "meta_bstar": 0,
        "meta_mean_motion_dot": -3.1e-07,
        "meta_mean_motion_ddot": 0,
        "tle_line1": "1 40001U 14032A   25335.95224122 -.00000031  00000+0  00000+0 0  9993",
        "tle_line2": "2 40001  65.3495 320.3998 0008297 219.0810 140.8682  2.13105853 89251"
      },
      "geometry": {
        "type": "Point",
        "coordinates": [
          175.85542415093133,
          -51.66242688848938
        ]
      }
    },
    {
      "type": "Feature",
      "properties": {
        "norad_id": 40105,
        "name": "GPS BIIF-7  (PRN 09)",
        "group": "gnss",
        "lat": 49.684355115055695,
        "lon": 151.17125287199107,
        "alt_km": 20120.990121111918,
        "timestamp": "2025-12-03T04:52:29.880048+00:00",
        "meta_object_name": "GPS BIIF-7  (PRN 09)",
        "meta_object_id": "2014-045A",
        "meta_epoch": "2025-12-02T02:40:49.418112",
        "meta_mean_motion": 2.00571797,
        "meta_eccentricity": 0.0032935,
        "meta_inclination": 55.2223,
        "meta_ra_of_asc_node": 96.323,
        "meta_arg_of_pericenter": 119.6015,
        "meta_mean_anomaly": 240.7039,
        "meta_ephemeris_type": 0,
        "meta_classification_type": "U",
        "meta_norad_cat_id": 40105,
        "meta_element_set_no": 999,
        "meta_rev_at_epoch": 8212,
        "meta_bstar": 0,
        "meta_mean_motion_dot": 7e-08,
        "meta_mean_motion_ddot": 0,
        "tle_line1": "1 40105U 14045A   25336.11168308  .00000007  00000+0  00000+0 0  9996",
        "tle_line2": "2 40105  55.2223  96.3230 0032935 119.6015 240.7039  2.00571797 82125"
      },
      "geometry": {
        "type": "Point",
        "coordinates": [
          151.17125287199107,
          49.684355115055695
        ]
      }
    }
  ]
}